AEROCUBE 12A            
1 43556U 18046C   20335.53125951  .00003949  00000-0  14396-3 0  9997
2 43556  51.6424  27.2550 0007983 166.4249 193.6948 15.30500081132804
AEROCUBE 12B            
1 43557U 18046D   20335.62650004  .00005490  00000-0  19765-3 0  9998
2 43557  51.6421  27.8721 0008220 167.3199 192.7990 15.30113201132752
SIRIUSSAT-1             
1 43595U 98067PG  20335.69662336  .00438497  10226-3  56251-3 0  9991
2 43595  51.6120 146.1626 0010162 227.2207 137.8819 16.06556672131355
SIRIUSSAT-2             
1 43596U 98067PH  20335.71510880  .00445246  10503-3  57179-3 0  9999
2 43596  51.6244 146.9320 0014401 350.2156  72.2160 16.06421442131348
SURFSAT                 
1 43614U 18070B   20335.47186761  .00006941  00000-0  17190-3 0  9998
2 43614  93.0289 223.3693 0017405  60.6845 299.6146 15.40272071124020
CP7 (DAVE)              
1 43615U 18070C   20335.19663841  .00007019  00000-0  17503-3 0  9992
2 43615  93.0293 223.2338 0017603  61.2446 299.0575 15.40061803123977
ELFIN-B                 
1 43616U 18070D   20335.52521145  .00009950  00000-0  23316-3 0  9995
2 43616  93.0250 223.3812 0017824  60.1766 300.1259 15.41915738124090
ELFIN-A                 
1 43617U 18070E   20335.20943528  .00011286  00000-0  26183-3 0  9994
2 43617  93.0306 223.9063 0017188  58.6761 301.6174 15.42222126124058
CUBEBEL-1 (BSUSAT-1)    
1 43666U 18083E   20335.77084682  .00002575  00000-0  12730-3 0  9995
2 43666  97.4764   0.5076 0016045 137.1735 335.9110 15.18640355115855
CICERO 10               
1 43690U 18088A   20335.74897731  .00003147  00000-0  14148-3 0  9992
2 43690  85.0353 328.7263 0016995  64.3803 295.9192 15.20578652114007
IRVINE01                
1 43693U 18088D   20335.43434090  .00006997  00000-0  28765-3 0  9992
2 43693  85.0325 327.0789 0019121  45.9897 314.2918 15.23803646114116
PROXIMA I               
1 43694U 18088E   20335.48469994  .00002753  00000-0  11712-3 0  9999
2 43694  85.0296 327.0131 0020470  38.7815 321.4891 15.22321013114105
PROXIMA II              
1 43696U 18088G   20335.48280505  .00002823  00000-0  12015-3 0  9995
2 43696  85.0296 327.0199 0020509  38.7043 321.5664 15.22321225114099
FACSAT-1                
1 43721U 18096C   20335.75651282  .00004853  00000-0  18081-3 0  9991
2 43721  97.4067  48.3405 0015769 253.7841 202.2886 15.27818920111772
CENTAURI-2              
1 43722U 18096D   20335.24113341  .00006064  00000-0  22041-3 0  9992
2 43722  97.4089  48.2873 0015729 254.4386 105.5117 15.28534238111717
INNOSAT-2               
1 43738U 18096V   20335.78712199  .00008872  00000-0  29287-3 0  9992
2 43738  97.4123  51.5352 0021191 258.0376 252.9579 15.31428108111970
SIRION PATHFINDER-2     
1 43759U 18099B   20335.59956559  .00000208  00000-0  24024-4 0  9997
2 43759  97.6899  44.2792 0014206 353.9327   6.1724 14.95361437108766
CORVUS-BC 4             
1 43767U 18099K   20335.60256413  .00000317  00000-0  34293-4 0  9990
2 43767  97.6882  43.5061 0011818 359.8872   0.2345 14.94802930108721
MOVE-II                 
1 43780U 18099Y   20335.46041738  .00001286  00000-0  12087-3 0  9993
2 43780  97.6909  44.1400 0013367   5.9549 354.1828 14.95596418108720
SPACEBEE-7              
1 43816U 18099BL  20335.43558812  .00000809  00000-0  77415-4 0  9993
2 43816  97.6928  44.6059 0013011 350.7005   9.3973 14.95859264108305
SPACEBEE-5              
1 43817U 18099BM  20335.44495674  .00002069  00000-0  18607-3 0  9998
2 43817  97.6996  45.3638 0012589 349.1058  10.9890 14.96693485108332
SPACEBEE-6              
1 43818U 18099BN  20335.77623807  .00001192  00000-0  11092-3 0  9993
2 43818  97.6946  45.1717 0012879 348.6587  11.4342 14.96116895108510
SHIELDS 1               
1 43850U 18104B   20335.60192918  .00001628  00000-0  70278-4 0  9998
2 43850  85.0313  65.4916 0015062 171.0761 189.0751 15.21574117108734
STF-1                   
1 43852U 18104D   20335.55052113  .00003635  00000-0  15856-3 0  9996
2 43852  85.0355  66.1605 0014201 185.6776 174.4307 15.21711219108704
ZACUBE-2                
1 43907U 18111AH  20335.90179558  .00001637  00000-0  68487-4 0  9996
2 43907  97.2496 230.4929 0019625 276.5529 148.6941 15.24816118107378
LUME 1                  
1 43908U 18111AJ  20335.75655509  .00003732  00000-0  14954-3 0  9992
2 43908  97.2502 230.6562 0019189 276.0388  83.8664 15.25477273107373
AOBA VELOX-IV           
1 43940U 19003J   20335.55112215  .00006010  00000-0  23657-3 0  9991
2 43940  97.2076  20.9958 0023163 359.7044   0.4177 15.25737314103969
CATSAT-2                
1 44029U 98067PV  20335.60453906  .00070507  00000-0  47510-3 0  9994
2 44029  51.6356 189.7934 0000413   6.3607 353.7397 15.74469779104605
DELPHINI                
1 44030U 98067PW  20335.78065614  .00099568  00000-0  59380-3 0  9996
2 44030  51.6304 185.4939 0000737 212.1535 147.9420 15.77121506104644
UNITE                   
1 44031U 98067PX  20335.48010891  .00029166  00000-0  28614-3 0  9994
2 44031  51.6359 203.1978 0001037 358.9576   1.1418 15.65815952104385
CATSAT-1                
1 44033U 98067PZ  20335.60419434  .00070135  00000-0  47171-3 0  9997
2 44033  51.6356 189.8014 0000713   8.8662 351.2350 15.74515397104511
RAAVANA-1               
1 44329U 98067QE  20335.71675175  .00039012  00000-0  42874-3 0  9997
2 44329  51.6374 218.3696 0004238 245.6405 114.4147 15.62777881 82956
UGUISU                  
1 44330U 98067QF  20335.42094083  .00031701  00000-0  35226-3 0  9990
2 44330  51.6354 220.0999 0004219 243.9612 116.0948 15.62597556 82880
NEPALISAT-1             
1 44331U 98067QG  20335.70779561  .00038710  00000-0  42549-3 0  9996
2 44331  51.6348 218.2676 0004140 248.5189 111.5364 15.62777421 82948
SPOOQY-1                
1 44332U 98067QH  20335.53422905  .00030784  00000-0  34325-3 0  9991
2 44332  51.6361 219.3719 0003290 247.5436 112.5210 15.62527544 82875
SPACEBEE-9              
1 44370U 19037F   20335.53331918  .00028802  00000-0  55758-3 0  9997
2 44370  45.0051 265.2181 0011994  98.2248 262.0004 15.47196120 80285
SPACEBEE-8              
1 44371U 19037G   20335.82385188  .00086126  00000-0  11866-2 0  9992
2 44371  45.0047 249.6526 0011289 131.3824 228.8042 15.56240824 80470
IOD-1 GEMS              
1 44385U 98067QK  20335.37860485  .00066327  00000-0  55583-3 0  9991
2 44385  51.6360 213.8969 0003868 187.4215 172.6725 15.69319692 80456
MOVE-IIB                
1 44398U 19038N   20335.87112106  .00004078  00000-0  23440-3 0  9993
2 44398  97.5573 295.2165 0023190 276.0704  83.7886 15.12836369 77735
SONATE                  
1 44400U 19038Q   20335.89137139  .00001870  00000-0  11159-3 0  9993
2 44400  97.5622 295.2248 0023317 273.8686  85.9880 15.12179720 77729
LUCKY-7                 
1 44406U 19038W   20335.47911219  .00001698  00000-0  10081-3 0  9993
2 44406  97.5626 294.9798 0022799 274.6999  85.1628 15.12490116 77664
BEESAT 9                
1 44412U 19038AC  20335.46537156  .00002558  00000-0  14938-3 0  9994
2 44412  97.5612 294.9534 0020861 281.0236  78.8648 15.12658816 77369
JAISAT-1                
1 44419U 19038F   20335.43260753  .00002957  00000-0  16987-3 0  9993
2 44419  97.5616 295.3120 0019695 279.7263  80.1743 15.13143646 77692
SWIATOWID               
1 44426U 98067QL  20335.69839850  .00104599  00000-0  77407-3 0  9997
2 44426  51.6387 209.7540 0004691 183.7860 282.7170 15.72104657 80544
KRAKSAT                 
1 44427U 98067QM  20335.75328858  .00026659  00000-0  33647-3 0  9994
2 44427  51.6417 224.4514 0003363 189.1427 274.9979 15.59371843 80399
VCC A                   
1 44428U 98067QN  20335.40332719  .00029773  00000-0  34119-3 0  9993
2 44428  51.6383 222.3295 0002623 195.4578 164.6336 15.61840238 80394
ENTRYSAT                
1 44429U 98067QP  20335.54339044  .00038986  00000-0  40807-3 0  9994
2 44429  51.6354 218.7070 0002935 187.3717 172.7235 15.64029035 80456
VCC C                   
1 44430U 98067QQ  20335.71244154  .00068042  00000-0  62504-3 0  9996
2 44430  51.6348 214.5880 0002820 188.0362 172.0590 15.67063284 79341
VCC B                   
1 44431U 98067QR  20335.39557329  .00029926  00000-0  34119-3 0  9991
2 44431  51.6360 222.2386 0002735 197.3304 162.7597 15.61969609 80331
DUCHIFAT-3              
1 44854U 19089C   20335.67503847  .00000965  00000-0  84032-4 0  9996
2 44854  36.9668 195.9257 0009599 323.4758  36.5338 14.99223495 53258
EYESAT-NANO             
1 44877U 19092E   20335.76248752  .00003630  00000-0  18536-3 0  9993
2 44877  97.4543 156.3783 0014046 155.4288 204.7617 15.17248624 52807
ORBITAL FACTORY 2 (OF-2)
1 45113U 19071C   20335.57849650  .00007829  00000-0  24340-3 0  9991
2 45113  51.6434 280.6538 0011985 297.8889  62.0879 15.34218272 46621
M2 PATHFINDER           
1 45727U 20037E   20335.47915262  .00000154  00000-0  21007-4 0  9990
2 45727  97.7016 151.7498 0014060 106.7551 253.5206 14.91268448 22765
NETSAT-4                
1 46504U 20068U   20335.57515890  .00001621  00000-0  12863-3 0  9991
2 46504  97.6694 268.3273 0011478  50.5886 309.6390 15.01872690  9385
NETSAT-3                
1 46505U 20068V   20335.57677332  .00001577  00000-0  12540-3 0  9994
2 46505  97.6658 268.3189 0011204  51.7134 308.5115 15.01829597  9390
NETSAT-1                
1 46506U 20068W   20335.57855089  .00001407  00000-0  11249-3 0  9999
2 46506  97.6663 268.3177 0011052  52.1678 308.0567 15.01784481  9391
NETSAT-2                
1 46507U 20068X   20335.51253177  .00001207  00000-0  97179-4 0  9999
2 46507  97.6660 268.2526 0011398  52.3527 307.8737 15.01765272  9331
SPOC                    
1 46921U 98067RR  20335.49143297  .00013335  00000-0  23588-3 0  9998
2 46921  51.6433 245.3711 0003003  70.8524 289.2790 15.50639235  3954
BOBCAT-1                
1 46922U 98067RS  20335.49078189  .00016069  00000-0  28111-3 0  9990
2 46922  51.6434 245.3673 0002824  76.4066 283.7237 15.50782755  3913
